{
    "links": {
        "self": "http://www.neowsapp.com/rest/v1/neo/3770285?api_key=iIulBulltgU6a56xZRHN4H3l9WmuAYTsLGpBGhQ2"
    },
    "id": "3770285",
    "neo_reference_id": "3770285",
    "name": "(2017 DL109)",
    "designation": "2017 DL109",
    "nasa_jpl_url": "http://ssd.jpl.nasa.gov/sbdb.cgi?sstr=3770285",
    "absolute_magnitude_h": 23.5,
    "estimated_diameter": {
        "kilometers": {
            "estimated_diameter_min": 0.0530340723,
            "estimated_diameter_max": 0.1185877909
        },
        "meters": {
            "estimated_diameter_min": 53.0340723319,
            "estimated_diameter_max": 118.5877908577
        },
        "miles": {
            "estimated_diameter_min": 0.0329538346,
            "estimated_diameter_max": 0.0736870142
        },
        "feet": {
            "estimated_diameter_min": 173.9963058693,
            "estimated_diameter_max": 389.0675677576
        }
    },
    "is_potentially_hazardous_asteroid": false,
    "close_approach_data": [
        {
            "close_approach_date": "2017-02-17",
            "close_approach_date_full": "2017-Feb-17 12:44",
            "epoch_date_close_approach": 1487335440000,
            "relative_velocity": {
                "kilometers_per_second": "11.9332676135",
                "kilometers_per_hour": "42959.7634084722",
                "miles_per_hour": "26693.5263245587"
            },
            "miss_distance": {
                "astronomical": "0.172112997",
                "lunar": "66.951955833",
                "kilometers": "25747737.75051639",
                "miles": "15998902.359210582"
            },
            "orbiting_body": "Earth"
        }
    ],
    "orbital_data": {
        "orbit_id": "3",
        "orbit_determination_date": "2018-02-10 07:08:47",
        "first_observation_date": "2017-02-19",
        "last_observation_date": "2017-03-02",
        "data_arc_in_days": 11,
        "observations_used": 27,
        "orbit_uncertainty": "8",
        "minimum_orbit_intersection": ".169754",
        "jupiter_tisserand_invariant": "4.182",
        "epoch_osculation": "2457807.5",
        "eccentricity": ".2998909363106808",
        "semi_major_axis": "1.632273181931408",
        "inclination": "21.52558623848774",
        "ascending_node_longitude": "143.6501597546452",
        "orbital_period": "761.7065581101",
        "perihelion_distance": "1.142769249087184",
        "perihelion_argument": "22.0396462918534",
        "aphelion_distance": "2.121777114775632",
        "perihelion_time": "2457818.540716311802",
        "mean_anomaly": "354.7819040942612",
        "mean_motion": ".4726229493063708",
        "equinox": "J2000",
        "orbit_class": {
            "orbit_class_type": "AMO",
            "orbit_class_description": "Near-Earth asteroid orbits similar to that of 1221 Amor",
            "orbit_class_range": "1.017 AU < q (perihelion) < 1.3 AU"
        }
    },
    "is_sentry_object": false
}